STARLINK-3302           
1 50842U 22001AR  26068.60980750 -.00000050  00000+0  14976-4 0  9997
2 50842  53.2182 179.4820 0001456  96.2762 263.8396 15.08837644230245
PRSC-S1                 
1 65055U 25164A   26068.60758212  .00007316  00000+0  46631-3 0  9991
2 65055  41.1290 129.3637 0004466 348.3012  11.7698 15.08919510 33403
